[{"OBJECT_NAME":"STARLING 1","OBJECT_ID":"2023-100C","EPOCH":"2026-03-09T22:50:11.977728","MEAN_MOTION":15.06170613,"ECCENTRICITY":0.00043741,"INCLINATION":99.5156,"RA_OF_ASC_NODE":64.1519,"ARG_OF_PERICENTER":233.3149,"MEAN_ANOMALY":126.7671,"EPHEMERIS_TYPE":0,"CLASSIFICATION_TYPE":"U","NORAD_CAT_ID":57388,"ELEMENT_SET_NO":999,"REV_AT_EPOCH":14496,"BSTAR":0.00020885616,"MEAN_MOTION_DOT":2.969e-5,"MEAN_MOTION_DDOT":0},{"OBJECT_NAME":"STARLINK-35110","OBJECT_ID":"2025-200V","EPOCH":"2026-03-09T22:45:37.744128","MEAN_MOTION":15.05660801,"ECCENTRICITY":0.00010456,"INCLINATION":97.6033,"RA_OF_ASC_NODE":140.1141,"ARG_OF_PERICENTER":80.0162,"MEAN_ANOMALY":280.1182,"EPHEMERIS_TYPE":0,"CLASSIFICATION_TYPE":"U","NORAD_CAT_ID":65539,"ELEMENT_SET_NO":999,"REV_AT_EPOCH":2917,"BSTAR":0.00028334924,"MEAN_MOTION_DOT":4.031e-5,"MEAN_MOTION_DDOT":0}]
